X,Y,Licence,CompName,Latitude,Longitude,KBE,GroundElev,SurfLoc,EDCT,RatingLev,LicStatus,LicStatDat,OpSurvProv,auxiliary_,icon_url
,,"0015986",Paramount Resources Ltd.(0AW4),55.077482000000003,-115.308006000000006,669.600000000000023,666.000000000000000,10:21:07.000,BWL,J,RecExempt,12 Nov 1958,,,./0.png
,,"0023816",Acquisition Oil Corp.(A7N3),54.881813000000001,-115.434088000000003,882.200000000000045,875.600000000000023,02:15:06.000,BWL,J,Amended,25 Aug 2000,,,./0.png
,,"0023816",Acquisition Oil Corp.(A7N3),54.881813000000001,-115.434088000000003,882.200000000000045,875.600000000000023,02:15:06.000,BWL,J,Amended,25 Aug 2000,,,./0.png
,,"0025477",Razor Energy Corp.(A7L1),54.859479000000000,-115.332503000000003,853.700000000000045,849.200000000000045,10:05:06.000,BWL,J,Suspension,20 Jan 2015,,,./0.png
,,"0025477",Razor Energy Corp.(A7L1),54.859479000000000,-115.332503000000003,853.700000000000045,849.200000000000045,10:05:06.000,BWL,J,Suspension,20 Jan 2015,,,./0.png
,,"0025587",Husky Oil Operations Limited(0R46),54.902748000000003,-115.306752000000003,804.399999999999977,800.100000000000023,10:21:06.000,BWL,J,RecExempt,31 Dec 1998,,,./0.png
,,"0025647",Cardinal Energy Ltd.(A6A7),54.997627000000001,-115.293436999999997,724.799999999999955,720.500000000000000,04:27:06.000,BWL,J,Suspension,29 Dec 2006,,,./0.png
,,"0025687",Razor Energy Corp.(A7L1),54.874073000000003,-115.333686999999998,839.700000000000045,836.100000000000023,10:08:06.000,BWL,J,Suspension,13 Jun 2017,,,./0.png
,,"0026227",Cardinal Energy Ltd.(A6A7),55.034179999999999,-115.409182999999999,736.100000000000023,736.100000000000023,10:02:07.000,BWL,J,Issued,08 Jun 1964,,,./0.png
,,"0026308",Cardinal Energy Ltd.(A6A7),55.034182999999999,-115.421700999999999,742.200000000000045,742.200000000000045,12:02:07.000,BWL,J,Issued,22 Jun 1964,,,./0.png
,,"0026456",Cardinal Energy Ltd.(A6A7),55.034379000000001,-115.434278000000006,751.600000000000023,751.600000000000023,10:03:07.000,BWL,J,Issued,10 Jul 1964,,,./0.png
,,"0027273",Cardinal Energy Ltd.(A6A7),54.983074999999999,-115.307817000000000,735.799999999999955,732.100000000000023,02:21:06.000,BWL,J,Abandoned,18 Mar 2004,,,./0.png
,,"0028117",Cardinal Energy Ltd.(A6A7),55.034177999999997,-115.396482000000006,728.200000000000045,728.200000000000045,12:01:07.000,BWL,J,Abandoned,02 Feb 2019,,,./0.png
,,"0028292",Cardinal Energy Ltd.(A6A7),55.034166999999997,-115.383882000000000,726.100000000000023,721.200000000000045,10:01:07.000,BWL,J,Abandoned,29 Jun 2018,,,./0.png
,,"0028292",Cardinal Energy Ltd.(A6A7),55.034166999999997,-115.383882000000000,726.100000000000023,721.200000000000045,10:01:07.000,BWL,J,Abandoned,29 Jun 2018,,,./0.png
,,0032428A,Phoenix Resources Company(0336),55.059953999999998,-115.321550000000002,676.200000000000045,676.200000000000045,05:16:07.000,BWL,J,RecExempt,31 Dec 1998,,,./0.png
,,"0025795",Cardinal Energy Ltd.(A6A7),55.012318000000000,-115.472538999999998,791.299999999999955,787.299999999999955,04:33:06.000,BWL,J,Issued,28 Feb 1964,,,./0.png
,,"0030031",Cardinal Energy Ltd.(A6A7),55.005068999999999,-115.523403000000002,831.500000000000000,827.500000000000000,12:30:06.000,BWL,J,Abandoned,16 Dec 1998,,,./0.png
,,"0030838",Cardinal Energy Ltd.(A6A7),55.005487000000002,-115.510855000000006,819.299999999999955,815.600000000000023,10:30:06.000,BWL,J,Suspension,31 Oct 2016,,,./0.png
,,"0021690",Husky Oil Operations Limited(0R46),54.874426999999997,-115.484759999999994,926.299999999999955,922.899999999999977,10:08:06.000,BWL,J,Abandoned,09 Jun 1988,,,./0.png
,,"0022424",Acquisition Oil Corp.(A7N3),54.866444000000001,-115.511598000000006,934.200000000000045,930.200000000000045,02:07:06.000,BWL,J,Abandoned,19 Mar 2019,,,./0.png
,,"0022868",Acquisition Oil Corp.(A7N3),54.873832000000000,-115.459322000000000,898.899999999999977,895.200000000000045,10:09:06.000,BWL,J,Suspension,28 Dec 2006,,,./0.png
,,"0027201",ARC Resources Ltd.(0G30),54.866289000000002,-115.510803999999993,930.200000000000045,930.200000000000045,02:07:06.000,BWL,J,RecExempt,26 Nov 1999,,,./0.png
,,"0027538",Acquisition Oil Corp.(A7N3),54.859762000000003,-115.561994999999996,977.500000000000000,973.500000000000000,10:02:06.000,BWL,J,Abandoned,13 Nov 2015,,,./0.png
,,"0037729",Acquisition Oil Corp.(A7N3),54.870077999999999,-115.504566999999994,927.200000000000045,923.200000000000045,08:07:06.000,BWL,J,Abandoned,09 May 2006,,,./0.png
,,"0048787",Acquisition Oil Corp.(A7N3),54.859051000000001,-115.611836999999994,1022.000000000000000,1017.100000000000023,10:04:06.000,BWL,J,Abandoned,17 Mar 2006,,,./0.png
,,"0018330",Canadian Natural Resources Limited(0HE9),54.823349000000000,-115.434970000000007,937.299999999999955,932.399999999999977,02:27:06.000,BWL,J,Suspension,16 Jun 2016,,,./0.png
,,"0018398",Canadian Natural Resources Limited(0HE9),54.823445000000000,-115.447404000000006,950.700000000000045,946.399999999999977,04:27:06.000,BWL,J,Suspension,01 Apr 2013,,,./0.png
,,"0021294",Canadian Natural Resources Limited(0HE9),54.801541999999998,-115.387000999999998,1003.700000000000045,1000.000000000000000,11:13:06.000,BWL,J,Issued,01 Sep 1961,,,./0.png
,,"0018961",Canadian Natural Resources Limited(0HE9),54.755440999999998,-115.522335999999996,1291.099999999999909,1286.900000000000091,07:36:06.000,BWL,J,Issued,27 Apr 1960,,,./0.png
,,"0119428",Canadian Natural Resources Limited(0HE9),54.754418999999999,-115.489777000000004,1278.099999999999909,1272.799999999999955,08:31:06.000,BWL,J,Suspension,24 Oct 2019,,,./0.png
