X,Y,X,Y,Licence,CompName,Latitude,Longitude,KBE,GroundElev,SurfLoc,EDCT,RatingLev,LicStatus,LicStatDat,OpSurvProv,icon_url
-115.44082,54.848188,,,"160972",Canadian Natural Resources Limited(0HE9),54.848188000000000,-115.440820000000002,985.299999999999955,980.100000000000023,14:34:06.000,BWL,J,Issued,15-Sep-93,Sour,./0.png
-115.404828,54.809449,,,"161843",Canadian Natural Resources Limited(0HE9),54.809449000000001,-115.404827999999995,972.399999999999977,967.200000000000045,01:23:06.000,BWL,J,Amended,24-Mar-94,Sour,./0.png
-115.404828,54.809449,,,"161843",Canadian Natural Resources Limited(0HE9),54.809449000000001,-115.404827999999995,972.399999999999977,967.200000000000045,01:23:06.000,BWL,J,Amended,24-Mar-94,Sour,./0.png
-115.404828,54.809449,,,"161843",Canadian Natural Resources Limited(0HE9),54.809449000000001,-115.404827999999995,972.399999999999977,967.200000000000045,01:23:06.000,BWL,J,Amended,24-Mar-94,Sour,./0.png
-115.580916,54.743868,,,"171887",Canadian Natural Resources Limited(0HE9),54.743867999999999,-115.580916000000002,1243.000000000000000,1236.799999999999955,11:27:06.000,BWL,J,Abandoned,07-Dec-94,Sour,./0.png
-115.41674,54.832664,,,"186763",Canadian Natural Resources Limited(0HE9),54.832664000000001,-115.416740000000004,972.200000000000045,967.799999999999955,14:26:06.000,BWL,J,Issued,13-Mar-96,Sour,./0.png
-115.428903,54.840211,,,"187079",Canadian Natural Resources Limited(0HE9),54.840210999999996,-115.428903000000005,989.899999999999977,985.500000000000000,08:34:06.000,BWL,J,Issued,02-Apr-96,Sour,./0.png
-115.432234,54.809016,,,"188587",Canadian Natural Resources Limited(0HE9),54.809016000000000,-115.432233999999994,993.799999999999955,987.899999999999977,02:22:06.000,BWL,J,Issued,11-Jun-96,Sour,./0.png
-115.811267,54.776813,,,"194757",Ovintiv Canada ULC(0026),54.776812999999997,-115.811267000000001,1260.500000000000000,1256.400000000000091,16:06:06.000,BWL,J,RecCertified,08-Mar-99,Sour,./0.png
-115.306407,55.007736,,,"179732",Kaiser Energy Ltd.(0TC8),55.007736000000001,-115.306406999999993,793.000000000000000,789.600000000000023,15:28:06.000,BWL,J,RecCertified,21-Jan-00,Sour,./0.png
-115.599567,55.01232,,,"30424",Cardinal Energy Ltd.(A6A7),55.012320000000003,-115.599566999999993,1004.700000000000045,998.899999999999977,04:34:06.000,"280",J,Amended,20-Feb-01,Sour,./0.png
-115.599567,55.01232,,,"30424",Cardinal Energy Ltd.(A6A7),55.012320000000003,-115.599566999999993,1004.700000000000045,998.899999999999977,04:34:06.000,"280",J,Amended,20-Feb-01,Sour,./0.png
-115.320931,55.025942,,,"254053",Cardinal Energy Ltd.(A6A7),55.025942000000001,-115.320931000000002,737.399999999999977,733.700000000000045,04:04:07.000,"280",J,Amended,08-Feb-02,Sour,./0.png
-115.320931,55.025942,,,"254053",Cardinal Energy Ltd.(A6A7),55.025942000000001,-115.320931000000002,737.399999999999977,733.700000000000045,04:04:07.000,"280",J,Amended,08-Feb-02,Sour,./0.png
-115.320931,55.025942,,,"254053",Cardinal Energy Ltd.(A6A7),55.025942000000001,-115.320931000000002,737.399999999999977,733.700000000000045,04:04:07.000,"280",J,Amended,08-Feb-02,Sour,./0.png
-115.320931,55.025942,,,"254053",Cardinal Energy Ltd.(A6A7),55.025942000000001,-115.320931000000002,737.399999999999977,733.700000000000045,04:04:07.000,"280",J,Amended,08-Feb-02,Sour,./0.png
-115.325543,55.030941,,,"268425",Cardinal Energy Ltd.(A6A7),55.030940999999999,-115.325542999999996,727.799999999999955,723.100000000000023,08:05:07.000,"280",J,Issued,07-Mar-02,Sour,./0.png
-115.586983,55.06321,,,"28445",Cardinal Energy Ltd.(A6A7),55.063209999999998,-115.586983000000004,1009.299999999999955,1005.299999999999955,10:15:07.000,"280",J,Amended,25-Sep-02,Sour,./0.png
-115.586983,55.06321,,,"28445",Cardinal Energy Ltd.(A6A7),55.063209999999998,-115.586983000000004,1009.299999999999955,1005.299999999999955,10:15:07.000,"280",J,Amended,25-Sep-02,Sour,./0.png
-115.586983,55.06321,,,"28445",Cardinal Energy Ltd.(A6A7),55.063209999999998,-115.586983000000004,1009.299999999999955,1005.299999999999955,10:15:07.000,"280",J,Amended,25-Sep-02,Sour,./0.png
-115.348247,54.989719,,,"275274",Cardinal Energy Ltd.(A6A7),54.989719000000001,-115.348247000000001,856.000000000000000,851.200000000000045,12:20:06.000,"360",J,Issued,30-Oct-02,Sour,./0.png
-115.546914,54.742743,,,"177562",Devon Canada Corporation(0K29),54.742742999999997,-115.546914000000001,1219.299999999999955,1213.700000000000045,10:26:06.000,BWL,J,RecCertified,01-Nov-02,Sour,./0.png
-115.38414,55.004838,,,"26667",Cardinal Energy Ltd.(A6A7),55.004837999999999,-115.384140000000002,836.600000000000023,832.600000000000023,10:25:06.000,"280",J,Amended,05-Apr-03,Sour,./0.png
-115.38414,55.004838,,,"26667",Cardinal Energy Ltd.(A6A7),55.004837999999999,-115.384140000000002,836.600000000000023,832.600000000000023,10:25:06.000,"280",J,Amended,05-Apr-03,Sour,./0.png
-115.38414,55.004838,,,"26667",Cardinal Energy Ltd.(A6A7),55.004837999999999,-115.384140000000002,836.600000000000023,832.600000000000023,10:25:06.000,"280",J,Amended,05-Apr-03,Sour,./0.png
-115.693648,55.078639,,,"286992",Acquisition Oil Corp.(A7N3),55.078639000000003,-115.693647999999996,818.299999999999955,813.500000000000000,11:24:07.000,"280",J,Issued,09-May-03,Sour,./0.png
-115.517459,54.840676,,,"291067",Canadian Natural Resources Limited(0HE9),54.840676000000002,-115.517459000000002,1066.299999999999955,1063.700000000000045,06:31:06.000,"280",J,Issued,08-Aug-03,Sour,./0.png
-115.501231,54.819867,,,"291537",Canadian Natural Resources Limited(0HE9),54.819867000000002,-115.501231000000004,1073.500000000000000,1069.799999999999955,13:20:06.000,"280",J,Amended,21-Aug-03,Sour,./0.png
-115.505827,54.826615,,,"292294",Canadian Natural Resources Limited(0HE9),54.826614999999997,-115.505826999999996,1128.200000000000045,1124.000000000000000,08:30:06.000,"280",J,Issued,04-Sep-03,Sour,./0.png
-115.56218,54.975635,,,"30376",Cardinal Energy Ltd.(A6A7),54.975634999999997,-115.562179999999998,930.899999999999977,924.899999999999977,10:14:06.000,"280",J,Amended,26-Nov-03,Sour,./0.png
-115.56218,54.975635,,,"30376",Cardinal Energy Ltd.(A6A7),54.975634999999997,-115.562179999999998,930.899999999999977,924.899999999999977,10:14:06.000,"280",J,Amended,26-Nov-03,Sour,./0.png
-115.574153,55.092342,,,"27714",Cardinal Energy Ltd.(A6A7),55.092342000000002,-115.574152999999995,869.899999999999977,865.899999999999977,12:26:07.000,"280",J,Amended,22-Dec-03,Sour,./0.png
-115.574153,55.092342,,,"27714",Cardinal Energy Ltd.(A6A7),55.092342000000002,-115.574152999999995,869.899999999999977,865.899999999999977,12:26:07.000,"280",J,Amended,22-Dec-03,Sour,./0.png
-115.63793,55.099583,,,"26242",Cardinal Energy Ltd.(A6A7),55.099583000000003,-115.637929999999997,842.200000000000045,838.200000000000045,02:32:07.000,"280",J,Amended,24-Dec-03,Sour,./0.png
-115.63793,55.099583,,,"26242",Cardinal Energy Ltd.(A6A7),55.099583000000003,-115.637929999999997,842.200000000000045,838.200000000000045,02:32:07.000,"280",J,Amended,24-Dec-03,Sour,./0.png
-115.427436,54.807696,,,"304890",Canadian Natural Resources Limited(0HE9),54.807696000000000,-115.427436000000000,988.000000000000000,983.200000000000045,01:22:06.000,"280",J,Issued,27-Feb-04,Sour,./0.png
-115.427704,54.807787,,,"304907",Canadian Natural Resources Limited(0HE9),54.807786999999998,-115.427704000000006,988.299999999999955,982.899999999999977,01:22:06.000,"280",J,Issued,27-Feb-04,Sour,./0.png
-115.469358,54.834256,,,"307125",Canadian Natural Resources Limited(0HE9),54.834256000000003,-115.469358000000000,987.500000000000000,981.299999999999955,14:28:06.000,"280",J,Issued,12-Apr-04,Sour,./0.png
-115.493077,54.817228,,,"308499",Canadian Natural Resources Limited(0HE9),54.817228000000000,-115.493077000000000,1027.900000000000091,1023.000000000000000,11:20:06.000,"280",J,Issued,12-May-04,Sour,./0.png
-115.381049,54.958943,,,"310771",Cardinal Energy Ltd.(A6A7),54.958942999999998,-115.381049000000004,916.500000000000000,911.399999999999977,07:12:06.000,"280",J,Issued,23-Jun-04,Sour,./0.png
-115.415323,54.782026,,,"154339",Canadian Natural Resources Limited(0HE9),54.782026000000002,-115.415323000000001,1119.200000000000045,1114.400000000000091,06:11:06.000,BWL,J,Abandoned,07-Jan-05,Sour,./0.png
-115.319188,55.033158,,,"257874",Cardinal Energy Ltd.(A6A7),55.033158000000000,-115.319187999999997,736.000000000000000,730.899999999999977,12:04:07.000,"280",J,Amended,07-Feb-05,Sour,./0.png
-115.319188,55.033158,,,"257874",Cardinal Energy Ltd.(A6A7),55.033158000000000,-115.319187999999997,736.000000000000000,730.899999999999977,12:04:07.000,"280",J,Amended,07-Feb-05,Sour,./0.png
-115.319188,55.033158,,,"257874",Cardinal Energy Ltd.(A6A7),55.033158000000000,-115.319187999999997,736.000000000000000,730.899999999999977,12:04:07.000,"280",J,Amended,07-Feb-05,Sour,./0.png
-115.319188,55.033158,,,"257874",Cardinal Energy Ltd.(A6A7),55.033158000000000,-115.319187999999997,736.000000000000000,730.899999999999977,12:04:07.000,"280",J,Amended,07-Feb-05,Sour,./0.png
-115.436491,54.794119,,,"326219",Canadian Natural Resources Limited(0HE9),54.794119000000002,-115.436491000000004,1053.200000000000045,1045.500000000000000,02:15:06.000,"280",J,Issued,11-Feb-05,Sour,./0.png
-115.436802,54.794119,,,"326229",Canadian Natural Resources Limited(0HE9),54.794119000000002,-115.436802000000000,1053.200000000000045,1047.400000000000091,02:15:06.000,"280",J,Issued,11-Feb-05,Sour,./0.png
-115.443464,54.776814,,,"326280",Canadian Natural Resources Limited(0HE9),54.776814000000002,-115.443464000000006,1176.400000000000091,1170.500000000000000,14:03:06.000,"280",J,Issued,12-Feb-05,Sour,./0.png
-115.440907,54.782397,,,"327713",Canadian Natural Resources Limited(0HE9),54.782397000000003,-115.440906999999996,1125.400000000000091,1118.299999999999955,06:10:06.000,"280",J,Issued,07-Mar-05,Sour,./0.png
-115.419765,54.772307,,,"327938",Canadian Natural Resources Limited(0HE9),54.772306999999998,-115.419764999999998,1177.400000000000091,1171.900000000000091,12:02:06.000,"280",J,Issued,11-Mar-05,Sour,./0.png
-115.614446,54.932814,,,"332042",Cardinal Energy Ltd.(A6A7),54.932814000000000,-115.614446000000001,1109.200000000000045,1104.500000000000000,10:33:06.000,"360",J,Issued,01-Jun-05,Sour,./0.png
-115.566228,54.979429,,,"340044",Cardinal Energy Ltd.(A6A7),54.979429000000003,-115.566227999999995,917.899999999999977,912.600000000000023,14:14:06.000,"280",J,Issued,14-Oct-05,Sour,./0.png
-115.626367,54.92368,,,"331875",Cardinal Energy Ltd.(A6A7),54.923679999999997,-115.626367000000002,1073.700000000000045,1067.900000000000091,04:33:06.000,"360",J,Abandoned,09-Dec-05,Sour,./0.png
-115.507468,54.810726,,,"350860",Canadian Natural Resources Limited(0HE9),54.810726000000003,-115.507468000000003,1025.400000000000091,1021.200000000000045,08:19:06.000,"280",J,Issued,01-Feb-06,Sour,./0.png
-115.518553,54.828676,,,"351899",Canadian Natural Resources Limited(0HE9),54.828676000000002,-115.518552999999997,1093.200000000000045,1087.799999999999955,06:30:06.000,"280",J,Issued,13-Feb-06,Sour,./0.png
-115.434138,54.799558,,,"352134",Canadian Natural Resources Limited(0HE9),54.799557999999998,-115.434138000000004,1019.299999999999955,1014.399999999999977,07:15:06.000,"280",J,Issued,15-Feb-06,Sour,./0.png
-115.542225,54.818336,,,"350933",Canadian Natural Resources Limited(0HE9),54.818336000000002,-115.542225000000002,1164.700000000000045,1158.000000000000000,14:24:06.000,"290",J,Amended,03-Apr-06,Sour,./0.png
-115.542445,54.818464,,,"350934",Canadian Natural Resources Limited(0HE9),54.818463999999999,-115.542445000000001,1164.700000000000045,1160.799999999999955,14:24:06.000,"290",J,Amended,03-Apr-06,Sour,./0.png
-115.516053,54.754413,,,"226802",Canadian Natural Resources Limited(0HE9),54.754413000000000,-115.516052999999999,1287.900000000000091,1282.700000000000045,08:36:06.000,BWL,J,Suspension,06-Oct-06,Sour,./0.png
-115.465309,54.768777,,,"372425",Canadian Natural Resources Limited(0HE9),54.768777000000000,-115.465309000000005,1180.099999999999909,1176.700000000000045,06:04:06.000,"280",J,Issued,18-Jan-07,Sour,./0.png
-115.451206,54.761348,,,"372611",Canadian Natural Resources Limited(0HE9),54.761347999999998,-115.451205999999999,1279.900000000000091,1276.599999999999909,14:33:06.000,"280",J,Issued,19-Jan-07,Sour,./0.png
-115.46593,54.768733,,,"372436",Canadian Natural Resources Limited(0HE9),54.768732999999997,-115.465930000000000,1180.000000000000000,1173.799999999999955,06:04:06.000,"280",J,Amended,22-Feb-07,Sour,./0.png
-115.491827,54.833808,,,"374908",Canadian Natural Resources Limited(0HE9),54.833807999999998,-115.491827000000001,1091.400000000000091,1086.400000000000091,14:29:06.000,"280",J,Issued,22-Feb-07,Sour,./0.png
-115.516195,54.833822,,,"374911",Canadian Natural Resources Limited(0HE9),54.833821999999998,-115.516194999999996,1088.400000000000091,1086.500000000000000,14:30:06.000,"280",J,Issued,22-Feb-07,Sour,./0.png
-115.504218,54.833926,,,"374913",Canadian Natural Resources Limited(0HE9),54.833925999999998,-115.504217999999995,1092.799999999999955,1088.700000000000045,16:30:06.000,"280",J,Issued,22-Feb-07,Sour,./0.png
-115.815086,54.765399,,,"183604",Ovintiv Canada ULC(0026),54.765399000000002,-115.815085999999994,1336.000000000000000,1330.599999999999909,02:06:06.000,BWL,J,RecCertified,28-Feb-07,Sour,./0.png
-115.409183,54.793962,,,"377960",Canadian Natural Resources Limited(0HE9),54.793962000000001,-115.409182999999999,1035.599999999999909,1030.200000000000045,02:14:06.000,"280",J,Issued,08-Jun-07,Sour,./0.png
-115.436631,54.794417,,,"378067",Canadian Natural Resources Limited(0HE9),54.794417000000003,-115.436631000000006,1051.099999999999909,1046.200000000000045,02:15:06.000,"280",J,Amended,20-Jun-07,Sour,./0.png
-115.543158,54.795788,,,"380631",Canadian Natural Resources Limited(0HE9),54.795788000000002,-115.543158000000005,1060.500000000000000,1055.599999999999909,03:13:06.000,"280",J,Issued,16-Aug-07,Sour,./0.png
-115.51633,54.746819,,,"226795",Canadian Natural Resources Limited(0HE9),54.746819000000002,-115.516329999999996,1270.200000000000045,1265.099999999999909,16:25:06.000,BWL,J,Suspension,27-Dec-07,Sour,./0.png
-115.517525,54.821676,,,"396010",Canadian Natural Resources Limited(0HE9),54.821675999999997,-115.517525000000006,1069.299999999999955,1064.599999999999909,03:30:06.000,"280",J,Issued,21-Apr-08,Sour,./0.png
-115.514767,54.807691,,,"396184",Canadian Natural Resources Limited(0HE9),54.807690999999998,-115.514767000000006,1017.000000000000000,1012.700000000000045,03:19:06.000,"290",J,Issued,28-Apr-08,Sour,./0.png
-115.514767,54.807511,,,"396191",Canadian Natural Resources Limited(0HE9),54.807510999999998,-115.514767000000006,1017.000000000000000,1011.700000000000045,03:19:06.000,"290",J,Issued,29-Apr-08,Sour,./0.png
-115.51016,54.780755,,,"398040",Canadian Natural Resources Limited(0HE9),54.780754999999999,-115.510159999999999,1170.599999999999909,1169.000000000000000,02:07:06.000,"290",J,Issued,27-Jun-08,Sour,./0.png
-115.5099,54.780854,,,"398041",Canadian Natural Resources Limited(0HE9),54.780853999999998,-115.509900000000002,1170.599999999999909,1167.599999999999909,02:07:06.000,"290",J,Issued,27-Jun-08,Sour,./0.png
-115.506567,54.786312,,,"398681",Canadian Natural Resources Limited(0HE9),54.786312000000002,-115.506567000000004,1106.500000000000000,1100.099999999999909,09:07:06.000,"280",J,Issued,18-Jul-08,Sour,./0.png
-115.542659,54.837431,,,"399674",Acquisition Oil Corp.(A7N3),54.837431000000002,-115.542659000000000,1119.200000000000045,1115.599999999999909,03:36:06.000,"280",J,Issued,14-Aug-08,Sour,./0.png
-115.442152,54.783088,,,"399741",Canadian Natural Resources Limited(0HE9),54.783087999999999,-115.442151999999993,1118.799999999999955,1113.400000000000091,06:10:06.000,"280",J,Issued,15-Aug-08,Sour,./0.png
-115.311699,54.988909,,,"403329",Cardinal Energy Ltd.(A6A7),54.988909000000000,-115.311699000000004,801.899999999999977,796.889999999999986,11:21:06.000,"570",J,Issued,04-Nov-08,Sour,./0.png
-115.52865,54.81527,,,"395999",Canadian Natural Resources Limited(0HE9),54.815269999999998,-115.528649999999999,1129.799999999999955,1128.599999999999909,09:24:06.000,"290",J,Amended,07-Jan-09,Sour,./0.png
-115.581029,54.743055,,,"291415",Trident Exploration (Alberta) Corp.(A663),54.743054999999998,-115.581029000000001,1242.799999999999955,1237.500000000000000,11:27:06.000,"280",J,Suspension,01-Feb-09,Sour,./0.png
-115.518603,54.771634,,,"401304",Canadian Natural Resources Limited(0HE9),54.771633999999999,-115.518602999999999,1272.799999999999955,1269.299999999999955,11:06:06.000,"280",J,Suspension,09-Feb-09,Sour,./0.png
-115.384705,54.807586,,,"409762",Canadian Natural Resources Limited(0HE9),54.807586000000001,-115.384704999999997,1000.299999999999955,997.100000000000023,02:24:06.000,"280",J,Issued,17-Mar-09,Sour,./0.png
-115.599758,55.077712,,,"27384",Cardinal Energy Ltd.(A6A7),55.077711999999998,-115.599757999999994,932.000000000000000,927.100000000000023,12:22:07.000,"280",J,Abandoned,19-Mar-09,Sour,./0.png
-115.599758,55.077712,,,"27384",Cardinal Energy Ltd.(A6A7),55.077711999999998,-115.599757999999994,0.000000000000000,927.100000000000023,12:22:07.000,"280",J,Abandoned,19-Mar-09,Sour,./0.png
-115.599758,55.077712,,,"27384",Cardinal Energy Ltd.(A6A7),55.077711999999998,-115.599757999999994,932.000000000000000,927.100000000000023,12:22:07.000,"280",J,Abandoned,19-Mar-09,Sour,./0.png
-115.400821,54.811186,,,"409804",Canadian Natural Resources Limited(0HE9),54.811185999999999,-115.400820999999993,972.100000000000023,968.399999999999977,08:23:06.000,"280",J,Issued,19-Mar-09,Sour,./0.png
-115.409183,54.793692,,,"409834",Canadian Natural Resources Limited(0HE9),54.793692000000000,-115.409182999999999,1035.900000000000091,1030.900000000000091,02:14:06.000,"280",J,Issued,23-Mar-09,Sour,./0.png
-115.31159,54.989077,,,"403328",Cardinal Energy Ltd.(A6A7),54.989077000000002,-115.311589999999995,801.899999999999977,796.049999999999955,11:21:06.000,"570",J,Amended,14-May-09,Sour,./0.png
-115.400809,54.811366,,,"409761",Canadian Natural Resources Limited(0HE9),54.811366000000000,-115.400808999999995,972.200000000000045,967.899999999999977,08:23:06.000,"280",J,Suspension,04-Jun-09,Sour,./0.png
-115.503954,54.739482,,,"226793",Canadian Natural Resources Limited(0HE9),54.739482000000002,-115.503953999999993,1205.200000000000045,1198.500000000000000,06:30:06.000,BWL,J,Suspension,19-Oct-09,Sour,./0.png
-115.55835,54.802686,,,"412096",Canadian Natural Resources Limited(0HE9),54.802686000000001,-115.558350000000004,1056.500000000000000,1052.000000000000000,09:14:06.000,"280",J,Suspension,11-Dec-09,Sour,./0.png
-115.34555,55.00514,,,"415538",Cardinal Energy Ltd.(A6A7),55.005139999999997,-115.345550000000003,820.500000000000000,814.970000000000027,12:29:06.000,"360",J,Issued,14-Dec-09,Sour,./0.png
-115.28173,54.984132,,,"415615",Cardinal Energy Ltd.(A6A7),54.984132000000002,-115.281729999999996,745.000000000000000,738.629999999999995,02:22:06.000,"570",J,Issued,15-Dec-09,Sour,./0.png
-115.34555,55.00496,,,"415627",Cardinal Energy Ltd.(A6A7),55.004959999999997,-115.345550000000003,820.000000000000000,813.379999999999995,12:29:06.000,"570",J,Issued,15-Dec-09,Sour,./0.png
-115.235432,54.903443,,,"415693",Ridgeback Resources Inc.(A7G2),54.903443000000003,-115.235432000000003,896.899999999999977,891.750000000000000,11:24:06.000,"280",J,Issued,16-Dec-09,Sour,./0.png
-115.271643,54.989152,,,"415704",Cardinal Energy Ltd.(A6A7),54.989151999999997,-115.271642999999997,742.000000000000000,734.210000000000036,12:23:06.000,"570",J,Issued,16-Dec-09,Sour,./0.png
-115.675971,55.106735,,,"26563",Cardinal Energy Ltd.(A6A7),55.106735000000000,-115.675971000000004,787.000000000000000,782.700000000000045,12:31:07.000,"280",J,Suspension,31-Dec-09,Sour,./0.png
-115.675971,55.106735,,,"26563",Cardinal Energy Ltd.(A6A7),55.106735000000000,-115.675971000000004,787.000000000000000,782.700000000000045,12:31:07.000,"280",J,Suspension,31-Dec-09,Sour,./0.png
-115.56243,55.004632,,,"31241",Cardinal Energy Ltd.(A6A7),55.004632000000001,-115.562430000000006,900.399999999999977,895.600000000000023,10:26:06.000,"280",J,Suspension,31-Dec-09,Sour,./0.png
-115.56243,55.004632,,,"31241",Cardinal Energy Ltd.(A6A7),55.004632000000001,-115.562430000000006,900.399999999999977,895.600000000000023,10:26:06.000,"280",J,Suspension,31-Dec-09,Sour,./0.png
-115.614429,54.932451,,,"332037",Cardinal Energy Ltd.(A6A7),54.932451000000000,-115.614429000000001,1109.400000000000091,1106.400000000000091,10:33:06.000,"360",J,Suspension,31-Dec-09,Sour,./0.png
-115.614429,54.932451,,,"332037",Cardinal Energy Ltd.(A6A7),54.932451000000000,-115.614429000000001,1109.400000000000091,1106.400000000000091,10:33:06.000,"360",J,Suspension,31-Dec-09,Sour,./0.png
-115.238787,54.893878,,,"417188",Ridgeback Resources Inc.(A7G2),54.893878000000001,-115.238787000000002,938.799999999999955,937.730000000000018,14:13:06.000,"280",J,Amended,12-Feb-10,Sour,./0.png
-115.528339,54.81527,,,"395998",Canadian Natural Resources Limited(0HE9),54.815269999999998,-115.528339000000003,1129.799999999999955,1126.500000000000000,09:24:06.000,"290",J,Suspension,07-Mar-10,Sour,./0.png
-115.269813,54.794248,,,"419512",Razor Energy Corp.(A7L1),54.794248000000003,-115.269812999999999,1183.700000000000045,1178.500000000000000,04:14:06.000,"280",J,Issued,01-Apr-10,Sour,./0.png
-115.590348,54.931802,,,"332378",Cardinal Energy Ltd.(A6A7),54.931801999999998,-115.590348000000006,1247.799999999999955,1243.400000000000091,11:34:06.000,"360",J,Suspension,30-Apr-10,Sour,./0.png
-115.503962,54.746373,,,"226796",Canadian Natural Resources Limited(0HE9),54.746372999999998,-115.503962000000001,1274.099999999999909,1269.799999999999955,14:30:06.000,BWL,J,Suspension,11-May-10,Sour,./0.png
-115.319751,54.794928,,,"420756",Razor Energy Corp.(A7L1),54.794927999999999,-115.319750999999997,1012.600000000000023,1008.100000000000023,04:16:06.000,"280",J,Issued,28-May-10,Sour,./0.png
-115.367492,54.775246,,,"421585",Canadian Natural Resources Limited(0HE9),54.775246000000003,-115.367491999999999,1161.500000000000000,1154.099999999999909,14:06:06.000,"280",J,Issued,02-Jul-10,Sour,./0.png
-115.522501,54.794412,,,"377898",Canadian Natural Resources Limited(0HE9),54.794412000000001,-115.522501000000005,1051.400000000000091,1046.000000000000000,04:18:06.000,"280",J,Suspension,22-Jul-10,Sour,./0.png
-115.590135,54.93182,,,"332389",Cardinal Energy Ltd.(A6A7),54.931820000000002,-115.590135000000004,1247.200000000000045,1242.500000000000000,10:34:06.000,"360",J,Suspension,31-Jul-10,Sour,./0.png
-115.4326,54.743245,,,"421417",Canadian Natural Resources Limited(0HE9),54.743245000000002,-115.432599999999994,1218.700000000000045,1213.299999999999955,12:27:06.000,"280",J,Amended,05-Aug-10,Sour,./0.png
-115.381507,54.772503,,,"422810",Canadian Natural Resources Limited(0HE9),54.772503000000000,-115.381506999999999,1111.599999999999909,1108.400000000000091,10:01:06.000,"290",J,Issued,19-Aug-10,Sour,./0.png
-115.381805,54.77266,,,"422811",Canadian Natural Resources Limited(0HE9),54.772660000000002,-115.381805000000000,1112.000000000000000,1106.700000000000045,10:01:06.000,"290",J,Issued,19-Aug-10,Sour,./0.png
-115.422117,55.017011,,,"424843",Cardinal Energy Ltd.(A6A7),55.017010999999997,-115.422117000000000,794.200000000000045,789.899999999999977,05:35:06.000,"360",J,Issued,20-Oct-10,Sour,./0.png
-115.510513,55.019205,,,"424845",Cardinal Energy Ltd.(A6A7),55.019204999999999,-115.510513000000003,850.799999999999955,847.299999999999955,10:31:06.000,"360",J,Amended,21-Oct-10,Sour,./0.png
-115.448416,55.019058,,,"426134",Cardinal Energy Ltd.(A6A7),55.019058000000001,-115.448415999999995,820.899999999999977,817.100000000000023,12:34:06.000,"360",J,Issued,22-Nov-10,Sour,./0.png
-115.456555,55.012349,,,"426914",Cardinal Energy Ltd.(A6A7),55.012349000000000,-115.456554999999994,802.500000000000000,801.100000000000023,01:33:06.000,"360",J,Issued,02-Dec-10,Sour,./0.png
-115.465545,54.96485,,,"426977",Acquisition Oil Corp.(A7N3),54.964849999999998,-115.465545000000006,922.399999999999977,916.899999999999977,14:09:06.000,"280",J,Issued,03-Dec-10,Sour,./0.png
-115.449658,55.008354,,,"426982",Cardinal Energy Ltd.(A6A7),55.008353999999997,-115.449657999999999,812.100000000000023,806.899999999999977,13:27:06.000,"360",J,Issued,03-Dec-10,Sour,./0.png
-115.511091,55.001328,,,"427983",Cardinal Energy Ltd.(A6A7),55.001328000000001,-115.511090999999993,825.200000000000045,819.700000000000045,07:30:06.000,"360",J,Issued,16-Dec-10,Sour,./0.png
-115.47221,55.005122,,,"431334",Cardinal Energy Ltd.(A6A7),55.005122000000000,-115.472210000000004,802.600000000000023,797.700000000000045,12:28:06.000,"360",J,Issued,09-Feb-11,Sour,./0.png
-115.584441,54.88222,,,"431932",Acquisition Oil Corp.(A7N3),54.882219999999997,-115.584440999999998,1149.700000000000045,1142.700000000000045,02:15:06.000,"280",J,Issued,28-Feb-11,Sour,./0.png
-115.465619,54.768777,,,"372420",Canadian Natural Resources Limited(0HE9),54.768777000000000,-115.465619000000004,1180.000000000000000,1174.000000000000000,06:04:06.000,"280",J,Suspension,01-Mar-11,Sour,./0.png
-115.590666,54.878785,,,"432053",Acquisition Oil Corp.(A7N3),54.878785000000001,-115.590665999999999,1132.700000000000045,1126.599999999999909,14:10:06.000,"280",J,Issued,04-Mar-11,Sour,./0.png
-115.411204,54.742717,,,"432249",Canadian Natural Resources Limited(0HE9),54.742716999999999,-115.411203999999998,1251.400000000000091,1244.000000000000000,12:26:06.000,"290",J,Issued,10-Mar-11,Sour,./0.png
-115.345919,54.777721,,,"432327",Canadian Natural Resources Limited(0HE9),54.777721000000000,-115.345918999999995,1164.099999999999909,1160.099999999999909,13:05:06.000,"290",J,Issued,11-Mar-11,Sour,./0.png
-115.345608,54.777712,,,"432328",Canadian Natural Resources Limited(0HE9),54.777712000000001,-115.345607999999999,1163.400000000000091,1161.900000000000091,13:05:06.000,"290",J,Issued,11-Mar-11,Sour,./0.png
-115.396726,55.012527,,,"432485",Cardinal Energy Ltd.(A6A7),55.012526999999999,-115.396726000000001,807.600000000000023,803.000000000000000,04:36:06.000,"360",J,Issued,21-Mar-11,Sour,./0.png
-115.459839,55.011649,,,"432495",Cardinal Energy Ltd.(A6A7),55.011648999999998,-115.459839000000002,813.799999999999955,808.600000000000023,02:33:06.000,"360",J,Issued,21-Mar-11,Sour,./0.png
-115.408713,55.012386,,,"432518",Cardinal Energy Ltd.(A6A7),55.012385999999999,-115.408713000000006,804.399999999999977,799.899999999999977,02:35:06.000,"360",J,Issued,22-Mar-11,Sour,./0.png
-115.286698,54.893198,,,"433211",Razor Energy Corp.(A7L1),54.893197999999998,-115.286698000000001,883.000000000000000,879.100000000000023,14:15:06.000,"360",J,Issued,29-Apr-11,Sour,./0.png
-115.286698,54.893332,,,"433213",Razor Energy Corp.(A7L1),54.893332000000001,-115.286698000000001,883.000000000000000,878.399999999999977,14:15:06.000,"360",J,Issued,29-Apr-11,Sour,./0.png
-115.247699,54.84726,,,"434416",Razor Energy Corp.(A7L1),54.847259999999999,-115.247698999999997,1045.900000000000091,1040.000000000000000,16:35:06.000,"370",J,Issued,16-Jun-11,Sour,./0.png
-115.247335,54.847428,,,"434418",Razor Energy Corp.(A7L1),54.847428000000001,-115.247335000000007,1045.900000000000091,1040.000000000000000,16:35:06.000,"370",J,Issued,16-Jun-11,Sour,./0.png
-115.288569,54.893375,,,"434965",Ridgeback Resources Inc.(A7G2),54.893374999999999,-115.288568999999995,878.299999999999955,872.799999999999955,14:15:06.000,"280",J,Issued,07-Jul-11,Sour,./0.png
-115.562097,55.048394,,,"427796",Cardinal Energy Ltd.(A6A7),55.048394000000002,-115.562096999999994,1025.299999999999955,1020.000000000000000,10:11:07.000,"360",J,Amended,12-Jul-11,Sour,./0.png
-115.561784,55.048394,,,"428702",Cardinal Energy Ltd.(A6A7),55.048394000000002,-115.561784000000003,1025.000000000000000,1020.299999999999955,10:11:07.000,"360",J,Amended,12-Jul-11,Sour,./0.png
-115.345539,54.990616,,,"415523",Cardinal Energy Ltd.(A6A7),54.990616000000003,-115.345539000000002,846.600000000000023,841.200000000000045,12:20:06.000,"360",J,Amended,12-Sep-11,Sour,./0.png
-115.442267,54.78292,,,"437112",Canadian Natural Resources Limited(0HE9),54.782919999999997,-115.442267000000001,1119.200000000000045,1113.900000000000091,06:10:06.000,"280",J,Issued,23-Sep-11,Sour,./0.png
-115.370906,54.96877,,,"38556",Cardinal Energy Ltd.(A6A7),54.968769999999999,-115.370906000000005,900.299999999999955,894.899999999999977,04:18:06.000,"140",J,Amended,05-Oct-11,Sour,./0.png
-115.370906,54.96877,,,"38556",Cardinal Energy Ltd.(A6A7),54.968769999999999,-115.370906000000005,900.299999999999955,894.899999999999977,04:18:06.000,"140",J,Amended,05-Oct-11,Sour,./0.png
-115.370906,54.96877,,,"38556",Cardinal Energy Ltd.(A6A7),54.968769999999999,-115.370906000000005,900.299999999999955,894.899999999999977,04:18:06.000,"140",J,Amended,05-Oct-11,Sour,./0.png
-115.643238,55.084681,,,"437634",Cardinal Energy Ltd.(A6A7),55.084681000000003,-115.643237999999997,850.799999999999955,846.299999999999955,03:29:07.000,"360",J,Issued,13-Oct-11,Sour,./0.png
-115.600575,55.075011,,,"438006",Cardinal Energy Ltd.(A6A7),55.075011000000003,-115.600575000000006,950.899999999999977,945.899999999999977,05:22:07.000,"360",J,Issued,25-Oct-11,Sour,./0.png
-115.587714,55.099197,,,"27196",Cardinal Energy Ltd.(A6A7),55.099196999999997,-115.587714000000005,859.399999999999977,855.500000000000000,02:34:07.000,"280",J,Amended,26-Oct-11,Sour,./0.png
-115.587714,55.099197,,,"27196",Cardinal Energy Ltd.(A6A7),55.099196999999997,-115.587714000000005,859.399999999999977,855.500000000000000,02:34:07.000,"280",J,Amended,26-Oct-11,Sour,./0.png
-115.587714,55.099197,,,"27196",Cardinal Energy Ltd.(A6A7),55.099196999999997,-115.587714000000005,859.399999999999977,855.500000000000000,02:34:07.000,"280",J,Amended,26-Oct-11,Sour,./0.png
-115.600081,55.077716,,,"438246",Cardinal Energy Ltd.(A6A7),55.077716000000002,-115.600081000000003,930.799999999999955,926.100000000000023,12:22:07.000,"360",J,Issued,31-Oct-11,Sour,./0.png
-115.600694,55.075177,,,"438725",Cardinal Energy Ltd.(A6A7),55.075176999999996,-115.600694000000004,950.799999999999955,945.700000000000045,05:22:07.000,"360",J,Issued,14-Nov-11,Sour,./0.png
-115.59447,55.066052,,,"438727",Cardinal Energy Ltd.(A6A7),55.066051999999999,-115.594470000000001,1003.899999999999977,998.299999999999955,14:15:07.000,"360",J,Issued,14-Nov-11,Sour,./0.png
-115.651408,55.090607,,,"439006",Cardinal Energy Ltd.(A6A7),55.090606999999999,-115.651408000000004,838.899999999999977,834.600000000000023,12:29:07.000,"360",J,Issued,16-Nov-11,Sour,./0.png
-115.614022,55.095013,,,"439310",Cardinal Energy Ltd.(A6A7),55.095013000000002,-115.614022000000006,883.600000000000023,879.299999999999955,15:28:07.000,"360",J,Issued,22-Nov-11,Sour,./0.png
-115.346662,54.881457,,,"439645",Razor Energy Corp.(A7L1),54.881456999999997,-115.346661999999995,876.399999999999977,871.100000000000023,04:17:06.000,"360",J,Issued,24-Nov-11,Sour,./0.png
-115.549583,55.033702,,,"439883",Cardinal Energy Ltd.(A6A7),55.033701999999998,-115.549582999999998,932.799999999999955,928.799999999999955,12:01:07.000,"360",J,Issued,29-Nov-11,Sour,./0.png
-115.543217,54.83746,,,"440646",Acquisition Oil Corp.(A7N3),54.837460000000000,-115.543216999999999,1121.700000000000045,1114.700000000000045,03:36:06.000,"280",J,Issued,08-Dec-11,Sour,./0.png
-115.346827,54.881552,,,"440799",Razor Energy Corp.(A7L1),54.881551999999999,-115.346827000000005,876.899999999999977,871.500000000000000,04:17:06.000,"360",J,Issued,09-Dec-11,Sour,./0.png
-115.248483,54.82161,,,"441270",Razor Energy Corp.(A7L1),54.821610000000000,-115.248482999999993,1198.500000000000000,1193.400000000000091,01:26:06.000,"360",J,Issued,14-Dec-11,Sour,./0.png
-115.248651,54.821703,,,"441271",Razor Energy Corp.(A7L1),54.821702999999999,-115.248650999999995,1198.500000000000000,1192.900000000000091,01:26:06.000,"360",J,Issued,14-Dec-11,Sour,./0.png
-115.344102,55.012002,,,"443029",Cardinal Energy Ltd.(A6A7),55.012002000000003,-115.344102000000007,793.299999999999955,789.100000000000023,04:32:06.000,"360",J,Issued,19-Jan-12,Sour,./0.png
-115.327483,54.971456,,,"443175",Ridgeback Resources Inc.(A7G2),54.971456000000003,-115.327483000000001,784.299999999999955,781.799999999999955,08:17:06.000,"360",J,Issued,23-Jan-12,Sour,./0.png
-115.574313,54.975951,,,"344769",Cardinal Energy Ltd.(A6A7),54.975951000000002,-115.574313000000004,936.299999999999955,931.399999999999977,12:14:06.000,"360",J,Suspension,31-Jan-12,Sour,./0.png
-115.585166,54.940397,,,"332371",Cardinal Energy Ltd.(A6A7),54.940396999999997,-115.585166000000001,1233.599999999999909,1228.900000000000091,02:03:06.000,"280",J,Suspension,28-Feb-12,Sour,./0.png
-115.271039,54.794,,,"443770",Razor Energy Corp.(A7L1),54.793999999999997,-115.271039000000002,1183.799999999999955,1178.500000000000000,04:14:06.000,"360",J,Amended,26-Apr-12,Sour,./0.png
-115.358342,54.990174,,,"27314",Cardinal Energy Ltd.(A6A7),54.990174000000003,-115.358341999999993,888.100000000000023,882.500000000000000,10:19:06.000,"280",J,Amended,10-May-12,Sour,./0.png
-115.358342,54.990174,,,"27314",Cardinal Energy Ltd.(A6A7),54.990174000000003,-115.358341999999993,888.100000000000023,882.500000000000000,10:19:06.000,"280",J,Amended,10-May-12,Sour,./0.png
-115.358342,54.990174,,,"27314",Cardinal Energy Ltd.(A6A7),54.990174000000003,-115.358341999999993,888.100000000000023,882.500000000000000,10:19:06.000,"280",J,Amended,10-May-12,Sour,./0.png
-115.59058,54.931785,,,"332411",Cardinal Energy Ltd.(A6A7),54.931784999999998,-115.590580000000003,1248.099999999999909,1243.700000000000045,11:34:06.000,"360",J,Suspension,31-May-12,Sour,./0.png
-115.271061,54.794268,,,"441791",Razor Energy Corp.(A7L1),54.794268000000002,-115.271061000000003,1183.799999999999955,1178.799999999999955,04:14:06.000,"360",J,Amended,09-Jul-12,Sour,./0.png
-115.465625,54.965074,,,"443450",Acquisition Oil Corp.(A7N3),54.965074000000001,-115.465625000000003,922.399999999999977,916.899999999999977,14:09:06.000,"280",J,Amended,30-Jul-12,Sour,./0.png
-115.465625,54.965074,,,"443450",Acquisition Oil Corp.(A7N3),54.965074000000001,-115.465625000000003,922.399999999999977,916.899999999999977,14:09:06.000,"280",J,Amended,30-Jul-12,Sour,./0.png
-115.288163,54.94017,,,"449622",Ridgeback Resources Inc.(A7G2),54.940170000000002,-115.288162999999997,800.299999999999955,795.200000000000045,03:03:06.000,"570",J,Issued,30-Oct-12,Sour,./0.png
-115.398349,54.995022,,,"449785",Cardinal Energy Ltd.(A6A7),54.995021999999999,-115.398348999999996,829.200000000000045,823.899999999999977,13:24:06.000,"570",J,Issued,06-Nov-12,Sour,./0.png
-115.663232,55.098419,,,"449919",Cardinal Energy Ltd.(A6A7),55.098419000000000,-115.663231999999994,814.700000000000045,810.000000000000000,02:31:07.000,"570",J,Issued,09-Nov-12,Sour,./0.png
-115.555742,55.080242,,,"449947",Cardinal Energy Ltd.(A6A7),55.080241999999998,-115.555741999999995,870.299999999999955,865.399999999999977,16:23:07.000,"570",J,Issued,09-Nov-12,Sour,./0.png
-115.295347,54.793468,,,"452347",Razor Energy Corp.(A7L1),54.793467999999997,-115.295347000000007,1085.000000000000000,1079.900000000000091,04:15:06.000,"360",J,Issued,18-Dec-12,Sour,./0.png
-115.192355,54.939196,,,"450950",ACCEL Canada Holdings Limited(A7ND),54.939196000000003,-115.192355000000006,903.299999999999955,898.299999999999955,04:05:06.000,"280",J,Amended,09-Jan-13,Sour,./0.png
-115.537189,55.030862,,,"453870",Cardinal Energy Ltd.(A6A7),55.030861999999999,-115.537188999999998,880.100000000000023,875.799999999999955,07:01:07.000,"570",J,Issued,18-Jan-13,Sour,./0.png
-115.662815,55.087009,,,"453882",Cardinal Energy Ltd.(A6A7),55.087009000000002,-115.662814999999995,835.299999999999955,830.899999999999977,07:30:07.000,"570",J,Issued,21-Jan-13,Sour,./0.png
-115.295205,54.793575,,,"453959",Razor Energy Corp.(A7L1),54.793574999999997,-115.295204999999996,1085.000000000000000,1080.099999999999909,04:15:06.000,"360",J,Issued,21-Jan-13,Sour,./0.png
-115.568055,55.038069,,,"453988",Cardinal Energy Ltd.(A6A7),55.038069000000000,-115.568055000000001,1018.299999999999955,1014.600000000000023,14:02:07.000,"570",J,Issued,22-Jan-13,Sour,./0.png
-115.327058,54.971342,,,"454418",Ridgeback Resources Inc.(A7G2),54.971342000000000,-115.327057999999994,780.899999999999977,778.700000000000045,08:17:06.000,"360",J,Issued,31-Jan-13,Sour,./0.png
-115.580717,55.070675,,,"455423",Cardinal Energy Ltd.(A6A7),55.070675000000001,-115.580717000000007,939.000000000000000,934.399999999999977,01:22:07.000,"570",J,Issued,22-Feb-13,Sour,./0.png
-115.331547,54.971889,,,"455233",Ridgeback Resources Inc.(A7G2),54.971888999999997,-115.331547000000000,805.000000000000000,801.000000000000000,07:17:06.000,"360",J,Amended,15-Mar-13,Sour,./0.png
-115.331313,54.971889,,,"455214",Ridgeback Resources Inc.(A7G2),54.971888999999997,-115.331312999999994,804.500000000000000,798.299999999999955,07:17:06.000,"360",J,Amended,25-Mar-13,Sour,./0.png
-115.675996,55.092348,,,"26562",Cardinal Energy Ltd.(A6A7),55.092348000000001,-115.675995999999998,821.100000000000023,817.200000000000045,12:30:07.000,"280",J,Amended,26-Apr-13,Sour,./0.png
-115.675996,55.092348,,,"26562",Cardinal Energy Ltd.(A6A7),55.092348000000001,-115.675995999999998,821.100000000000023,817.200000000000045,12:30:07.000,"280",J,Amended,26-Apr-13,Sour,./0.png
-115.675996,55.092348,,,"26562",Cardinal Energy Ltd.(A6A7),55.092348000000001,-115.675995999999998,821.100000000000023,817.200000000000045,12:30:07.000,"280",J,Amended,26-Apr-13,Sour,./0.png
-115.288034,54.939912,,,"457096",Ridgeback Resources Inc.(A7G2),54.939912000000000,-115.288033999999996,801.100000000000023,795.299999999999955,03:03:06.000,"570",J,Issued,23-May-13,Sour,./0.png
-115.318806,54.795602,,,"453961",Razor Energy Corp.(A7L1),54.795602000000002,-115.318805999999995,1014.000000000000000,1008.700000000000045,04:16:06.000,"360",J,Amended,29-May-13,Sour,./0.png
-115.319165,54.79543,,,"433225",Razor Energy Corp.(A7L1),54.795430000000003,-115.319164999999998,1015.600000000000023,1009.500000000000000,04:16:06.000,"360",J,Amended,04-Jun-13,Sour,./0.png
-115.319165,54.79543,,,"433225",Razor Energy Corp.(A7L1),54.795430000000003,-115.319164999999998,1015.600000000000023,1009.500000000000000,04:16:06.000,"360",J,Amended,04-Jun-13,Sour,./0.png
-115.247836,54.847213,,,"447328",Razor Energy Corp.(A7L1),54.847213000000004,-115.247836000000007,1047.500000000000000,1041.299999999999955,16:35:06.000,"360",J,Amended,05-Jun-13,Sour,./0.png
-115.606707,55.052914,,,"452474",Cardinal Energy Ltd.(A6A7),55.052914000000001,-115.606707000000000,1082.400000000000091,1079.599999999999909,16:09:07.000,"570",J,Amended,06-Jun-13,Sour,./0.png
-115.294076,54.960187,,,"458506",Ridgeback Resources Inc.(A7G2),54.960186999999998,-115.294076000000004,787.700000000000045,783.200000000000045,12:10:06.000,"280",J,Issued,12-Aug-13,Sour,./0.png
-115.294075,54.960322,,,"458515",Ridgeback Resources Inc.(A7G2),54.960321999999998,-115.294075000000007,787.700000000000045,783.500000000000000,12:10:06.000,"280",J,Issued,12-Aug-13,Sour,./0.png
-115.294068,54.960726,,,"458520",Ridgeback Resources Inc.(A7G2),54.960726000000001,-115.294067999999996,787.799999999999955,783.299999999999955,12:10:06.000,"280",J,Issued,12-Aug-13,Sour,./0.png
-115.29407,54.960591,,,"458523",Ridgeback Resources Inc.(A7G2),54.960591000000001,-115.294070000000005,787.799999999999955,783.799999999999955,12:10:06.000,"280",J,Issued,12-Aug-13,Sour,./0.png
-115.269386,54.949641,,,"457442",Ridgeback Resources Inc.(A7G2),54.949641000000000,-115.269385999999997,822.700000000000045,818.399999999999977,13:02:06.000,"360",J,Amended,23-Sep-13,Sour,./0.png
-115.606319,55.053073,,,"459963",Cardinal Energy Ltd.(A6A7),55.053072999999998,-115.606318999999999,1082.299999999999955,1077.099999999999909,16:09:07.000,"370",J,Issued,09-Oct-13,Sour,./0.png
-115.523923,54.951057,,,"460677",Cardinal Energy Ltd.(A6A7),54.951056999999999,-115.523922999999996,977.899999999999977,974.399999999999977,13:06:06.000,"360",J,Issued,01-Nov-13,Sour,./0.png
-115.567735,55.03772,,,"460678",Cardinal Energy Ltd.(A6A7),55.037720000000000,-115.567734999999999,1018.399999999999977,1013.100000000000023,14:02:07.000,"360",J,Issued,01-Nov-13,Sour,./0.png
-115.626935,54.889094,,,"336195",Cardinal Energy Ltd.(A6A7),54.889094000000000,-115.626935000000003,1198.200000000000045,1193.500000000000000,12:16:06.000,"360",J,Abandoned,06-Nov-13,Sour,./0.png
-115.623101,55.066824,,,"460160",Cardinal Energy Ltd.(A6A7),55.066823999999997,-115.623101000000005,943.100000000000023,937.000000000000000,13:16:07.000,"570",J,Amended,12-Nov-13,Sour,./0.png
-115.393793,55.005306,,,"460970",Cardinal Energy Ltd.(A6A7),55.005305999999997,-115.393793000000002,834.500000000000000,831.100000000000023,12:25:06.000,"360",J,Issued,12-Nov-13,Sour,./0.png
-115.343797,54.970457,,,"461160",Cardinal Energy Ltd.(A6A7),54.970457000000003,-115.343796999999995,844.700000000000045,839.899999999999977,04:17:06.000,"360",J,Issued,18-Nov-13,Sour,./0.png
-115.600748,55.077648,,,"461758",Cardinal Energy Ltd.(A6A7),55.077648000000003,-115.600747999999996,931.600000000000023,925.899999999999977,12:22:07.000,"360",J,Issued,02-Dec-13,Sour,./0.png
-115.252279,54.939284,,,"461923",Ridgeback Resources Inc.(A7G2),54.939284000000001,-115.252279000000001,857.200000000000045,854.000000000000000,01:02:06.000,"360",J,Issued,05-Dec-13,Sour,./0.png
-115.252455,54.939373,,,"461982",Ridgeback Resources Inc.(A7G2),54.939373000000003,-115.252454999999998,856.799999999999955,852.399999999999977,01:02:06.000,"360",J,Issued,05-Dec-13,Sour,./0.png
-115.414193,54.997599,,,"462778",Cardinal Energy Ltd.(A6A7),54.997599000000001,-115.414192999999997,816.299999999999955,812.299999999999955,03:26:06.000,"360",J,Issued,19-Dec-13,Sour,./0.png
-115.277284,54.949309,,,"463313",Ridgeback Resources Inc.(A7G2),54.949309000000000,-115.277283999999995,811.299999999999955,806.700000000000045,16:03:06.000,"360",J,Issued,03-Jan-14,Sour,./0.png
-115.362723,54.954332,,,"463339",Cardinal Energy Ltd.(A6A7),54.954332000000001,-115.362723000000003,852.799999999999955,849.299999999999955,03:07:06.000,"360",J,Issued,06-Jan-14,Sour,./0.png
-115.350778,54.982769,,,"463379",Cardinal Energy Ltd.(A6A7),54.982768999999998,-115.350778000000005,891.100000000000023,887.100000000000023,01:19:06.000,"360",J,Issued,07-Jan-14,Sour,./0.png
-115.327208,54.977768,,,"463537",Cardinal Energy Ltd.(A6A7),54.977767999999998,-115.327207999999999,820.600000000000023,816.299999999999955,09:17:06.000,"360",J,Issued,09-Jan-14,Sour,./0.png
-115.258887,55.01168,,,"444330",Acquisition Oil Corp.(A7N3),55.011679999999998,-115.258887000000001,752.799999999999955,746.500000000000000,02:35:06.000,"280",J,Amended,27-Jan-14,Sour,./0.png
-115.277736,54.949375,,,"463312",Ridgeback Resources Inc.(A7G2),54.949375000000003,-115.277736000000004,811.299999999999955,805.899999999999977,16:03:06.000,"360",J,Amended,27-Jan-14,Sour,./0.png
-115.579628,54.806125,,,"412118",Canadian Natural Resources Limited(0HE9),54.806125000000002,-115.579628000000000,1087.200000000000045,1083.599999999999909,16:15:06.000,"280",J,Abandoned,29-Jan-14,Sour,./0.png
-115.569158,54.810618,,,"395865",Canadian Natural Resources Limited(0HE9),54.810617999999998,-115.569158000000002,1111.299999999999955,1107.099999999999909,06:23:06.000,"280",J,Abandoned,30-Jan-14,Sour,./0.png
-115.350509,54.98255,,,"464793",Cardinal Energy Ltd.(A6A7),54.982550000000003,-115.350509000000002,891.100000000000023,885.899999999999977,01:19:06.000,"360",J,Issued,07-Feb-14,Sour,./0.png
-115.613104,54.911078,,,"333892",Cardinal Energy Ltd.(A6A7),54.911078000000003,-115.613104000000007,1125.599999999999909,1121.099999999999909,02:28:06.000,"360",J,Suspension,28-Feb-14,Sour,./0.png
-115.555824,54.972613,,,"341004",Cardinal Energy Ltd.(A6A7),54.972613000000003,-115.555824000000001,943.500000000000000,939.899999999999977,08:14:06.000,"280",J,Suspension,10-Jul-14,Sour,./0.png
-115.52219,54.794251,,,"377891",Canadian Natural Resources Limited(0HE9),54.794251000000003,-115.522189999999995,1051.400000000000091,1045.799999999999955,04:18:06.000,"280",J,Suspension,15-Jul-14,Sour,./0.png
-115.327208,54.978163,,,"469275",Cardinal Energy Ltd.(A6A7),54.978163000000002,-115.327207999999999,821.100000000000023,815.799999999999955,16:17:06.000,"360",J,Issued,21-Aug-14,Sour,./0.png
-115.536819,55.026927,,,"470143",Cardinal Energy Ltd.(A6A7),55.026927000000001,-115.536818999999994,874.600000000000023,869.100000000000023,02:01:07.000,"360",J,Issued,22-Sep-14,Sour,./0.png
-115.342006,54.971769,,,"470643",Cardinal Energy Ltd.(A6A7),54.971769000000002,-115.342005999999998,844.299999999999955,839.299999999999955,06:17:06.000,"360",J,Issued,15-Oct-14,Sour,./0.png
-115.585365,55.038527,,,"470933",Cardinal Energy Ltd.(A6A7),55.038527000000002,-115.585364999999996,1047.200000000000045,1042.500000000000000,15:03:07.000,"360",J,Issued,28-Oct-14,Sour,./0.png
-115.372624,54.946188,,,"471506",Cardinal Energy Ltd.(A6A7),54.946187999999999,-115.372624000000002,891.899999999999977,887.700000000000045,12:06:06.000,"370",J,Issued,17-Nov-14,Sour,./0.png
-115.411381,54.742865,,,"432248",Canadian Natural Resources Limited(0HE9),54.742865000000002,-115.411381000000006,1251.500000000000000,1245.500000000000000,12:26:06.000,"290",J,Suspension,18-Nov-14,Sour,./0.png
-115.460385,55.004746,,,"28771",Cardinal Energy Ltd.(A6A7),55.004745999999997,-115.460385000000002,813.700000000000045,809.799999999999955,10:28:06.000,"280",J,Suspension,18-Dec-14,Sour,./0.png
-115.460385,55.004746,,,"28771",Cardinal Energy Ltd.(A6A7),55.004745999999997,-115.460385000000002,813.700000000000045,809.799999999999955,10:28:06.000,"280",J,Suspension,18-Dec-14,Sour,./0.png
-115.404886,54.809981,,,"160239",Canadian Natural Resources Limited(0HE9),54.809981000000001,-115.404886000000005,970.700000000000045,964.500000000000000,01:23:06.000,BWL,J,Suspension,18-Dec-14,Sour,./0.png
-115.404886,54.809981,,,"160239",Canadian Natural Resources Limited(0HE9),54.809981000000001,-115.404886000000005,970.700000000000045,964.500000000000000,01:23:06.000,BWL,J,Suspension,18-Dec-14,Sour,./0.png
-115.667877,55.095678,,,"449322",Cardinal Energy Ltd.(A6A7),55.095677999999999,-115.667877000000004,833.600000000000023,828.600000000000023,14:30:07.000,"570",J,Suspension,31-Dec-14,Sour,./0.png
-115.503113,54.848466,,,"186792",Canadian Natural Resources Limited(0HE9),54.848466000000002,-115.503112999999999,1059.400000000000091,1054.500000000000000,16:31:06.000,BWL,J,Suspension,04-May-15,Sour,./0.png
-115.43373,54.767393,,,"327687",Canadian Natural Resources Limited(0HE9),54.767392999999998,-115.433729999999997,1264.900000000000091,1260.000000000000000,07:03:06.000,"280",J,Suspension,18-Jun-15,Sour,./0.png
-115.574267,54.88194,,,"26329",Acquisition Oil Corp.(A7N3),54.881940000000000,-115.574267000000006,1138.299999999999955,1134.099999999999909,04:14:06.000,"280",J,Suspension,11-Sep-15,Sour,./0.png
-115.574267,54.88194,,,"26329",Acquisition Oil Corp.(A7N3),54.881940000000000,-115.574267000000006,1138.299999999999955,1134.099999999999909,04:14:06.000,"280",J,Suspension,11-Sep-15,Sour,./0.png
-115.533607,54.82937,,,"396173",Canadian Natural Resources Limited(0HE9),54.829369999999997,-115.533607000000003,1147.500000000000000,1143.099999999999909,10:25:06.000,"290",J,Suspension,16-Sep-15,Sour,./0.png
-115.535553,54.809142,,,"379797",Canadian Natural Resources Limited(0HE9),54.809142000000001,-115.535552999999993,1072.500000000000000,1066.299999999999955,02:24:06.000,"280",J,Suspension,17-Sep-15,Sour,./0.png
-115.333967,55.026225,,,"245382",Cardinal Energy Ltd.(A6A7),55.026224999999997,-115.333967000000001,738.899999999999977,733.700000000000045,02:05:07.000,"280",J,Abandoned,09-Jan-16,Sour,./0.png
-115.333967,55.026225,,,"245382",Cardinal Energy Ltd.(A6A7),55.026224999999997,-115.333967000000001,738.899999999999977,733.700000000000045,02:05:07.000,"280",J,Abandoned,09-Jan-16,Sour,./0.png
-115.623415,54.901817,,,"334691",Cardinal Energy Ltd.(A6A7),54.901817000000001,-115.623414999999994,1121.500000000000000,1115.700000000000045,12:21:06.000,"370",J,Suspension,20-Mar-16,Sour,./0.png
-115.433419,54.767387,,,"327678",Canadian Natural Resources Limited(0HE9),54.767386999999999,-115.433419000000001,1264.799999999999955,1259.900000000000091,07:03:06.000,"280",J,Suspension,05-Jun-16,Sour,./0.png
-115.518806,54.771771,,,"401303",Canadian Natural Resources Limited(0HE9),54.771771000000001,-115.518805999999998,1272.900000000000091,1269.200000000000045,11:06:06.000,"280",J,Suspension,18-Jun-16,Sour,./0.png
-115.467624,54.841557,,,"307060",Canadian Natural Resources Limited(0HE9),54.841557000000002,-115.467624000000001,978.200000000000045,973.700000000000045,06:33:06.000,"280",J,Suspension,28-Jul-16,Sour,./0.png
-115.640145,55.09844,,,"443082",Cardinal Energy Ltd.(A6A7),55.098439999999997,-115.640145000000004,843.299999999999955,837.899999999999977,02:32:07.000,"360",J,Suspension,30-Jul-16,Sour,./0.png
-115.644638,55.110946,,,"443127",Cardinal Energy Ltd.(A6A7),55.110945999999998,-115.644638000000000,808.899999999999977,804.600000000000023,14:32:07.000,"360",J,Suspension,31-Jul-16,Sour,./0.png
-115.299457,54.806594,,,"420765",Razor Energy Corp.(A7L1),54.806593999999997,-115.299457000000004,1058.299999999999955,1053.099999999999909,16:16:06.000,"280",J,Abandoned,27-Oct-16,Sour,./0.png
-115.299457,54.806594,,,"420765",Razor Energy Corp.(A7L1),54.806593999999997,-115.299457000000004,1058.299999999999955,1053.099999999999909,16:16:06.000,"280",J,Abandoned,27-Oct-16,Sour,./0.png
-115.329967,54.989635,,,"415526",Cardinal Energy Ltd.(A6A7),54.989635000000000,-115.329966999999996,825.500000000000000,820.440000000000055,10:20:06.000,"570",J,Suspension,31-Jan-17,Sour,./0.png
-115.651011,55.090885,,,"437026",Cardinal Energy Ltd.(A6A7),55.090885000000000,-115.651010999999997,838.799999999999955,833.600000000000023,12:29:07.000,"360",J,Suspension,21-Mar-17,Sour,./0.png
-115.65121,55.090746,,,"437011",Cardinal Energy Ltd.(A6A7),55.090746000000003,-115.651210000000006,838.899999999999977,834.299999999999955,12:29:07.000,"360",J,Suspension,31-Mar-17,Sour,./0.png
-115.27105,54.794134,,,"443769",Razor Energy Corp.(A7L1),54.794134000000000,-115.271050000000002,1183.799999999999955,1178.700000000000045,04:14:06.000,"360",J,Suspension,12-Jun-17,Sour,./0.png
-115.283948,54.866513,,,"449917",Razor Energy Corp.(A7L1),54.866512999999998,-115.283947999999995,935.899999999999977,930.799999999999955,02:10:06.000,"360",J,Suspension,14-Jun-17,Sour,./0.png
-115.295012,54.764924,,,"28821",Razor Energy Corp.(A7L1),54.764924000000001,-115.295012000000000,1173.799999999999955,1169.799999999999955,04:03:06.000,"360",J,Suspension,24-Sep-17,Sour,./0.png
-115.295012,54.764924,,,"28821",Razor Energy Corp.(A7L1),54.764924000000001,-115.295012000000000,,1169.799999999999955,04:03:06.000,"360",J,Suspension,24-Sep-17,Sour,./0.png
-115.624118,54.901816,,,"334684",Cardinal Energy Ltd.(A6A7),54.901815999999997,-115.624117999999996,1121.900000000000091,1117.400000000000091,12:21:06.000,"370",J,Suspension,19-Oct-17,Sour,./0.png
-115.62582,54.91781,,,"334711",Cardinal Energy Ltd.(A6A7),54.917810000000003,-115.625820000000004,1070.000000000000000,1064.799999999999955,12:28:06.000,"370",J,Suspension,19-Oct-17,Sour,./0.png
-115.269246,54.794244,,,"28446",Razor Energy Corp.(A7L1),54.794243999999999,-115.269245999999995,1183.200000000000045,1179.000000000000000,04:14:06.000,"360",J,Suspension,23-Oct-17,Sour,./0.png
-115.269246,54.794244,,,"28446",Razor Energy Corp.(A7L1),54.794243999999999,-115.269245999999995,1183.400000000000091,1179.000000000000000,04:14:06.000,"360",J,Suspension,23-Oct-17,Sour,./0.png
-115.451208,54.761169,,,"372865",Canadian Natural Resources Limited(0HE9),54.761169000000002,-115.451207999999994,1279.900000000000091,1275.000000000000000,14:33:06.000,"280",J,Suspension,07-Apr-18,Sour,./0.png
-115.405013,54.869307,,,"357184",Velvet Energy Ltd.(A5YK),54.869306999999999,-115.405012999999997,984.299999999999955,979.500000000000000,08:11:06.000,"280",J,Abandoned,18-Jul-18,Sour,./0.png
-115.282002,54.990433,,,"24250",Cardinal Energy Ltd.(A6A7),54.990433000000003,-115.282002000000006,735.600000000000023,731.299999999999955,10:22:06.000,BWL,J,Suspension,30-Sep-18,Sour,./0.png
-115.282002,54.990433,,,"24250",Cardinal Energy Ltd.(A6A7),54.990433000000003,-115.282002000000006,735.600000000000023,731.299999999999955,10:22:06.000,BWL,J,Suspension,30-Sep-18,Sour,./0.png
-115.357136,54.954552,,,"82191",Cardinal Energy Ltd.(A6A7),54.954552000000000,-115.357135999999997,835.799999999999955,830.799999999999955,02:07:06.000,"280",J,Suspension,31-Dec-18,Sour,./0.png
-115.357136,54.954552,,,"82191",Cardinal Energy Ltd.(A6A7),54.954552000000000,-115.357135999999997,836.200000000000045,830.799999999999955,02:07:06.000,"280",J,Suspension,31-Dec-18,Sour,./0.png
-115.357136,54.954552,,,"82191",Cardinal Energy Ltd.(A6A7),54.954552000000000,-115.357135999999997,836.200000000000045,830.799999999999955,02:07:06.000,"280",J,Suspension,31-Dec-18,Sour,./0.png
-115.344066,55.001206,,,"440384",Cardinal Energy Ltd.(A6A7),55.001206000000003,-115.344065999999998,827.899999999999977,823.700000000000045,05:29:06.000,"360",J,Suspension,31-Mar-19,Sour,./0.png
-115.287879,54.939751,,,"495366",Ridgeback Resources Inc.(A7G2),54.939751000000001,-115.287879000000004,800.899999999999977,795.500000000000000,03:03:06.000,"360",J,Issued,07-Aug-19,Sour,./0.png
-115.269247,54.949899,,,"495408",Ridgeback Resources Inc.(A7G2),54.949899000000002,-115.269246999999993,824.399999999999977,819.399999999999977,13:02:06.000,"360",J,Issued,09-Aug-19,Sour,./0.png
-115.516332,54.739583,,,"226794",Canadian Natural Resources Limited(0HE9),54.739583000000003,-115.516332000000006,1214.799999999999955,1208.099999999999909,08:25:06.000,BWL,J,Suspension,23-Oct-19,Sour,./0.png
-115.415843,54.782014,,,"309678",Canadian Natural Resources Limited(0HE9),54.782013999999997,-115.415842999999995,1120.599999999999909,1115.599999999999909,06:11:06.000,"280",J,Suspension,08-Nov-19,Sour,./0.png
-115.405905,54.775211,,,"230226",Canadian Natural Resources Limited(0HE9),54.775210999999999,-115.405905000000004,1125.000000000000000,1118.299999999999955,16:02:06.000,BWL,J,Suspension,05-Dec-19,Sour,./0.png
-115.256106,54.773665,,,"30292",Razor Energy Corp.(A7L1),54.773665000000001,-115.256106000000003,,1171.299999999999955,10:02:06.000,"360",J,Suspension,10-Dec-19,Sour,./0.png
-115.256106,54.773665,,,"30292",Razor Energy Corp.(A7L1),54.773665000000001,-115.256106000000003,1175.299999999999955,1171.299999999999955,10:02:06.000,"360",J,Suspension,10-Dec-19,Sour,./0.png
